OBJECT_NAME,OBJECT_ID,EPOCH,MEAN_MOTION,ECCENTRICITY,INCLINATION,RA_OF_ASC_NODE,ARG_OF_PERICENTER,MEAN_ANOMALY,EPHEMERIS_TYPE,CLASSIFICATION_TYPE,NORAD_CAT_ID,ELEMENT_SET_NO,REV_AT_EPOCH,BSTAR,MEAN_MOTION_DOT,MEAN_MOTION_DDOT
ORBCOMM FM06,1997-084G,2026-07-09T15:09:40.590720,14.47619518,.00011026,45.0146,304.6600,214.6774,160.3014,0,U,25118,999,49764,.24654276E-3,.771E-5,0
ORBCOMM FM04,1998-007C,2026-07-11T00:19:35.112576,14.35779942,.0041897,107.9632,218.4592,283.9924,75.6560,0,U,25159,999,48001,.164E-3,.346E-5,0
ORBCOMM FM19,1998-046C,2026-07-11T04:15:07.899264,14.39537016,.0003404,44.9929,129.5229,36.9057,95.2958,0,U,25415,999,46023,.21254E-3,.526E-5,0
ORBCOMM FM20,1998-046D,2026-07-10T05:10:48.925056,14.38095254,.00018472,44.9930,142.2702,332.3533,27.7217,0,U,25416,999,46010,.17620595E-3,.397E-5,0
ORBCOMM FM27,1998-053G,2026-07-10T02:17:13.296192,14.39179836,.00024436,45.0036,226.5447,273.4638,86.5931,0,U,25481,999,45353,.17215432E-3,.395E-5,0
ORBCOMM FM32,1999-065C,2026-07-10T23:52:50.427840,14.37164512,.0005292,45.0156,60.5450,171.5965,188.4973,0,U,25982,999,39051,.15528E-3,.324E-5,0
ORBCOMM FM109,2014-040A,2026-07-10T10:51:23.855616,14.58869704,.00016835,47.0044,341.4899,308.1085,51.9649,0,U,40086,999,63774,.74203528E-4,.18E-5,0
ORBCOMM FM110,2015-081D,2026-07-11T05:03:19.467072,14.58915231,.0003416,47.0010,247.8514,205.8234,154.2482,0,U,41182,999,56113,.80966E-4,.212E-5,0
ORBCOMM FM118,2015-081E,2026-07-10T15:05:16.975680,14.58901793,.0002652,47.0030,250.9400,164.1790,195.9179,0,U,41183,999,56115,.59776E-4,.111E-5,0
ORBCOMM FM112,2015-081F,2026-07-10T06:58:06.819744,14.58933988,.00039383,46.9976,160.9948,308.3890,51.6642,0,U,41184,999,56232,.12957243E-3,.442E-5,0
ORBCOMM FM113,2015-081G,2026-07-10T06:25:35.167296,14.58878981,.00024645,46.9994,161.4897,302.9877,57.0772,0,U,41185,999,56230,.77225841E-4,.194E-5,0
ORBCOMM FM108,2015-081J,2026-07-11T01:14:24.584352,14.58906507,.0002852,47.0051,69.3634,307.2078,52.8547,0,U,41187,999,56356,.97793E-4,.291E-5,0
ORBCOMM FM117,2015-081K,2026-07-11T00:25:00.895008,14.58893758,.0003288,47.0015,68.1537,313.4287,46.6324,0,U,41188,999,56360,.94009E-4,.273E-5,0
ORBCOMM FM116,2015-081L,2026-07-09T15:04:05.673216,14.58902220,.00013414,47.0010,164.5128,214.5781,145.5017,0,U,41189,999,56221,.57341335E-4,.1E-5,0
